{
    "links": {
        "self": "http://www.neowsapp.com/rest/v1/neo/3327360?api_key=iIulBulltgU6a56xZRHN4H3l9WmuAYTsLGpBGhQ2"
    },
    "id": "3327360",
    "neo_reference_id": "3327360",
    "name": "(2006 EJ53)",
    "designation": "2006 EJ53",
    "nasa_jpl_url": "http://ssd.jpl.nasa.gov/sbdb.cgi?sstr=3327360",
    "absolute_magnitude_h": 22.4,
    "estimated_diameter": {
        "kilometers": {
            "estimated_diameter_min": 0.0880146521,
            "estimated_diameter_max": 0.1968067451
        },
        "meters": {
            "estimated_diameter_min": 88.0146520901,
            "estimated_diameter_max": 196.8067450894
        },
        "miles": {
            "estimated_diameter_min": 0.0546897524,
            "estimated_diameter_max": 0.122290004
        },
        "feet": {
            "estimated_diameter_min": 288.7619911632,
            "estimated_diameter_max": 645.6914415591
        }
    },
    "is_potentially_hazardous_asteroid": false,
    "close_approach_data": [
        {
            "close_approach_date": "2006-03-17",
            "close_approach_date_full": "2006-Mar-17 13:40",
            "epoch_date_close_approach": 1142602800000,
            "relative_velocity": {
                "kilometers_per_second": "12.7597422918",
                "kilometers_per_hour": "45935.0722503281",
                "miles_per_hour": "28542.267532433"
            },
            "miss_distance": {
                "astronomical": "0.2938870376",
                "lunar": "114.3220576264",
                "kilometers": "43964874.845569912",
                "miles": "27318506.4530603056"
            },
            "orbiting_body": "Earth"
        }
    ],
    "orbital_data": {
        "orbit_id": "7",
        "orbit_determination_date": "2017-04-06 09:08:55",
        "first_observation_date": "2006-03-06",
        "last_observation_date": "2006-03-23",
        "data_arc_in_days": 17,
        "observations_used": 19,
        "orbit_uncertainty": "8",
        "minimum_orbit_intersection": ".28584",
        "jupiter_tisserand_invariant": "3.461",
        "epoch_osculation": "2453807.5",
        "eccentricity": ".4291932686160463",
        "semi_major_axis": "2.174979728165915",
        "inclination": "23.79372026548564",
        "ascending_node_longitude": "346.105175923255",
        "orbital_period": "1171.605082713671",
        "perihelion_distance": "1.241493069460746",
        "perihelion_argument": "212.2821741141503",
        "aphelion_distance": "3.108466386871083",
        "perihelion_time": "2453840.911017820411",
        "mean_anomaly": "349.733770710956",
        "mean_motion": ".3072707734983261",
        "equinox": "J2000",
        "orbit_class": {
            "orbit_class_type": "AMO",
            "orbit_class_description": "Near-Earth asteroid orbits similar to that of 1221 Amor",
            "orbit_class_range": "1.017 AU < q (perihelion) < 1.3 AU"
        }
    },
    "is_sentry_object": false
}